{
  "norad_id": 57517,
  "name": "COSMOS 2569 [GLONASS-K2]",
  "history": [
    {
      "epoch": "2026-03-28T12:59:13.416000Z",
      "apogee_km": 19162.666762733563,
      "perigee_km": 19096.819700388598,
      "latitude_deg": 3.223698375021713e-05,
      "longitude_deg": 54.55970974787976,
      "height_km": 19117.165524282584,
      "semi_major_axis_km": 25507.880231561077,
      "eccentricity": 0.00129072,
      "inclination_deg": 65.2574,
      "raan_deg": 75.3385,
      "arg_perigee_deg": 293.4527,
      "mean_anomaly_deg": 66.4203,
      "mean_motion_rev_day": 2.13103807
    }
  ]
}